IRIDIUM 136             
1 42962U 17061H   24099.14817890  .00000152  00000+0  47035-4 0  9990
2 42962  86.4024 359.5935 0002297  92.2995 267.8464 14.34218802340168
